$$SOE
2460721.500000000, A.D. 2025-Feb-15 00:00:00.0000, 3.683164789818906E+08, -1.476899462932752E+08, -6.934246827280700E+06,
2460728.500000000, A.D. 2025-Feb-22 00:00:00.0000, 3.712112007937767E+08, -1.372974850211064E+08, -6.131915162821405E+06,
2460735.500000000, A.D. 2025-Mar-01 00:00:00.0000, 3.738153797044042E+08, -1.267976173031676E+08, -5.324785195704043E+06,
2460742.500000000, A.D. 2025-Mar-08 00:00:00.0000, 3.761246061622975E+08, -1.161977554381854E+08, -4.513455208951026E+06,
2460749.500000000, A.D. 2025-Mar-15 00:00:00.0000, 3.781346120684192E+08, -1.055055040179141E+08, -3.698536341403097E+06,
2460756.500000000, A.D. 2025-Mar-22 00:00:00.0000, 3.798412767737356E+08, -9.472866056863081E+07, -2.880652332716011E+06,
2460763.500000000, A.D. 2025-Mar-29 00:00:00.0000, 3.812406348092076E+08, -8.387521818100047E+07, -2.060439553327963E+06,
2460770.500000000, A.D. 2025-Apr-05 00:00:00.0000, 3.823288856731343E+08, -7.295336695873000E+07, -1.238547090941049E+06,
2460777.500000000, A.D. 2025-Apr-12 00:00:00.0000, 3.831024037505408E+08, -6.197149415012509E+07, -4.156367063084468E+05,
2460784.500000000, A.D. 2025-Apr-19 00:00:00.0000, 3.835577481763546E+08, -5.093818381127321E+07, 4.076172889593840E+05,
2460791.500000000, A.D. 2025-Apr-26 00:00:00.0000, 3.836916729105194E+08, -3.986221616972218E+07, 1.230528193282416E+06,
2460798.500000000, A.D. 2025-May-03 00:00:00.0000, 3.835011371329057E+08, -2.875256663369935E+07, 2.052397108176310E+06,
2460805.500000000, A.D. 2025-May-10 00:00:00.0000, 3.829833159785788E+08, -1.761840440100636E+07, 2.872513164065766E+06,
2460812.500000000, A.D. 2025-May-17 00:00:00.0000, 3.821356116398568E+08, -6.469090670399138E+06, 3.690153774738248E+06,
2460819.500000000, A.D. 2025-May-24 00:00:00.0000, 3.809556649956151E+08, 4.685823528620469E+06, 4.504584902650599E+06,
2460826.500000000, A.D. 2025-May-31 00:00:00.0000, 3.794413681665456E+08, 1.583660023795675E+07, 5.315061324606447E+06,
2460833.500000000, A.D. 2025-Jun-07 00:00:00.0000, 3.775908775720194E+08, 2.697331945315583E+07, 6.120827035704738E+06,
2460840.500000000, A.D. 2025-Jun-14 00:00:00.0000, 3.754026251037320E+08, 3.808588536391947E+07, 6.921115957407581E+06,
2460847.500000000, A.D. 2025-Jun-21 00:00:00.0000, 3.728753286104078E+08, 4.916403072182165E+07, 7.715152573925778E+06,
2460854.500000000, A.D. 2025-Jun-28 00:00:00.0000, 3.700080047883697E+08, 6.019732114020324E+07, 8.502152356710892E+06,
2460861.500000000, A.D. 2025-Jul-05 00:00:00.0000, 3.667999829239072E+08, 7.117516152558312E+07, 9.281322295229878E+06,
2460868.500000000, A.D. 2025-Jul-12 00:00:00.0000, 3.632509182573878E+08, 8.208680387646969E+07, 1.005186158042863E+07,
2460875.500000000, A.D. 2025-Jul-19 00:00:00.0000, 3.593608051139926E+08, 9.292135591256160E+07, 1.081296237911003E+07,
2460882.500000000, A.D. 2025-Jul-26 00:00:00.0000, 3.551299899582498E+08, 1.036677905134343E+08, 1.156381067734005E+07,
2460889.500000000, A.D. 2025-Aug-02 00:00:00.0000, 3.505591843767726E+08, 1.143149560235538E+08, 1.230358719007470E+07,
2460896.500000000, A.D. 2025-Aug-09 00:00:00.0000, 3.456494779462097E+08, 1.248515874455958E+08, 1.303146833498878E+07,
2460903.500000000, A.D. 2025-Aug-16 00:00:00.0000, 3.404023509960058E+08, 1.352663184960244E+08, 1.374662726008787E+07,
2460910.500000000, A.D. 2025-Aug-23 00:00:00.0000, 3.348196874921039E+08, 1.455476945724681E+08, 1.444823490183160E+07,
2460917.500000000, A.D. 2025-Aug-30 00:00:00.0000, 3.289037882994465E+08, 1.556841873705047E+08, 1.513546110355933E+07,
2460924.500000000, A.D. 2025-Sep-06 00:00:00.0000, 3.226573833227118E+08, 1.656642121675706E+08, 1.580747600691091E+07,
2460931.500000000, A.D. 2025-Sep-13 00:00:00.0000, 3.160836407707320E+08, 1.754761453083495E+08, 1.646345166796264E+07,
2460938.500000000, A.D. 2025-Sep-20 00:00:00.0000, 3.091861767340069E+08, 1.851083402538906E+08, 1.710256346366185E+07,
2460945.500000000, A.D. 2025-Sep-27 00:00:00.0000, 3.019690660368310E+08, 1.945491453022465E+08, 1.772399144414134E+07,
2460952.500000000, A.D. 2025-Oct-04 00:00:00.0000, 2.944368522446635E+08, 2.037869235124903E+08, 1.832692185824758E+07,
2460959.500000000, A.D. 2025-Oct-11 00:00:00.0000, 2.865945563505993E+08, 2.128100738748131E+08, 1.891054880752368E+07,
2460966.500000000, A.D. 2025-Oct-18 00:00:00.0000, 2.784476843207941E+08, 2.216070534281236E+08, 1.947407597747211E+07,
2460973.500000000, A.D. 2025-Oct-25 00:00:00.0000, 2.700022335326424E+08, 2.301664003012040E+08, 2.001671843053874E+07,
2460980.500000000, A.D. 2025-Nov-01 00:00:00.0000, 2.612646980376523E+08, 2.384767576466253E+08, 2.053770445376149E+07,
2460987.500000000, A.D. 2025-Nov-08 00:00:00.0000, 2.522420725747015E+08, 2.465268983783863E+08, 2.103627744952662E+07,
2460994.500000000, A.D. 2025-Nov-15 00:00:00.0000, 2.429418553724806E+08, 2.543057505867660E+08, 2.151169784425808E+07,
2461001.500000000, A.D. 2025-Nov-22 00:00:00.0000, 2.333720500376494E+08, 2.618024237731373E+08, 2.196324498846285E+07,
2461008.500000000, A.D. 2025-Nov-29 00:00:00.0000, 2.235411662742375E+08, 2.690062369495227E+08, 2.239021914613861E+07,
2461015.500000000, A.D. 2025-Dec-06 00:00:00.0000, 2.134582170550931E+08, 2.759067483623927E+08, 2.279194376161948E+07,
2461022.500000000, A.D. 2025-Dec-13 00:00:00.0000, 2.031327125858255E+08, 2.824937833650663E+08, 2.316776768053427E+07,
2461029.500000000, A.D. 2025-Dec-20 00:00:00.0000, 1.925746544823585E+08, 2.887574613456386E+08, 2.351706707934587E+07,
2461036.500000000, A.D. 2025-Dec-27 00:00:00.0000, 1.817945290206653E+08, 2.946882241629585E+08, 2.383924740253460E+07,
2461043.500000000, A.D. 2026-Jan-03 00:00:00.0000, 1.708032979369345E+08, 3.002768653262100E+08, 2.413374537936346E+07,
2461050.500000000, A.D. 2026-Jan-10 00:00:00.0000, 1.596123868382550E+08, 3.055145590828383E+08, 2.440003104275407E+07,
2461057.500000000, A.D. 2026-Jan-17 00:00:00.0000, 1.482336714203646E+08, 3.103928891584311E+08, 2.463760970890808E+07,
2461064.500000000, A.D. 2026-Jan-24 00:00:00.0000, 1.366794615487594E+08, 3.149038769990056E+08, 2.484602389935775E+07,
2461071.500000000, A.D. 2026-Jan-31 00:00:00.0000, 1.249624832206303E+08, 3.190400093302727E+08, 2.502485518938914E+07,
2461078.500000000, A.D. 2026-Feb-07 00:00:00.0000, 1.130958584799405E+08, 3.227942647943971E+08, 2.517372595912704E+07,
2461085.500000000, A.D. 2026-Feb-14 00:00:00.0000, 1.010930835671183E+08, 3.261601394649985E+08, 2.529230100957794E+07,
2461092.500000000, A.D. 2026-Feb-21 00:00:00.0000, 8.896800573856820E+07, 3.291316716350557E+08, 2.538028904239453E+07,
2461099.500000000, A.D. 2026-Feb-28 00:00:00.0000, 7.673479774133508E+07, 3.317034668495934E+08, 2.543744418416880E+07,
2461106.500000000, A.D. 2026-Mar-07 00:00:00.0000, 6.440792797077479E+07, 3.338707210447817E+08, 2.546356757125583E+07,
2461113.500000000, A.D. 2026-Mar-14 00:00:00.0000, 5.200212918326671E+07, 3.356292392847257E+08, 2.545850853888686E+07,
2461120.500000000, A.D. 2026-Mar-21 00:00:00.0000, 3.953236767140988E+07, 3.369754528391305E+08, 2.542216547833402E+07,
2461127.500000000, A.D. 2026-Mar-28 00:00:00.0000, 2.701381103827009E+07, 3.379064354759427E+08, 2.535448662034495E+07,
2461134.500000000, A.D. 2026-Apr-04 00:00:00.0000, 1.446179412505704E+07, 3.384199178586327E+08, 2.525547071250008E+07,
2461141.500000000, A.D. 2026-Apr-11 00:00:00.0000, 1.891783540984449E+06, 3.385142995608569E+08, 2.512516752864489E+07,
2461148.500000000, A.D. 2026-Apr-18 00:00:00.0000, -1.068065885367072E+07, 3.381886585795726E+08, 2.496367818874325E+07,
2461155.500000000, A.D. 2026-Apr-25 00:00:00.0000, -2.323991326067689E+07, 3.374427582624077E+08, 2.477115528028117E+07,
2461162.500000000, A.D. 2026-May-02 00:00:00.0000, -3.577033981061518E+07, 3.362770515358102E+08, 2.454780277133028E+07,
2461169.500000000, A.D. 2026-May-09 00:00:00.0000, -4.825631664511473E+07, 3.346926823056788E+08, 2.429387569627994E+07,
2461176.500000000, A.D. 2026-May-16 00:00:00.0000, -6.068227762172012E+07, 3.326914841365686E+08, 2.400967959210321E+07,
2461183.500000000, A.D. 2026-May-23 00:00:00.0000, -7.303274937032811E+07, 3.302759772327237E+08, 2.369556976796733E+07,
2461190.500000000, A.D. 2026-May-30 00:00:00.0000, -8.529238955174810E+07, 3.274493640694967E+08, 2.335195062990338E+07,
2461197.500000000, A.D. 2026-Jun-06 00:00:00.0000, -9.744602640142317E+07, 3.242155204397244E+08, 2.297927482671070E+07,
2461204.500000000, A.D. 2026-Jun-13 00:00:00.0000, -1.094786956730428E+08, 3.205789821647562E+08, 2.257804190337066E+07,
2461211.500000000, A.D. 2026-Jun-20 00:00:00.0000, -1.213756752754809E+08, 3.165449304828541E+08, 2.214879675525455E+07,
2461218.500000000, A.D. 2026-Jun-27 00:00:00.0000, -1.331225190961776E+08, 3.121191758791303E+08, 2.169212801984018E+07,
2461225.500000000, A.D. 2026-Jul-04 00:00:00.0000, -1.447050898199474E+08, 3.073081396986184E+08, 2.120866635274942E+07,
2461232.500000000, A.D. 2026-Jul-11 00:00:00.0000, -1.561095903148664E+08, 3.021188335462410E+08, 2.069908256572561E+07,
2461239.500000000, A.D. 2026-Jul-18 00:00:00.0000, -1.673225933341226E+08, 2.965588366526247E+08, 2.016408563297251E+07,
2461246.500000000, A.D. 2026-Jul-25 00:00:00.0000, -1.783310693680231E+08, 2.906362713759013E+08, 1.960442057753652E+07,
2461253.500000000, A.D. 2026-Aug-01 00:00:00.0000, -1.891224124749961E+08, 2.843597769702260E+08, 1.902086624377985E+07,
2461260.500000000, A.D. 2026-Aug-08 00:00:00.0000, -1.996844637729004E+08, 2.777384817727302E+08, 1.841423294821414E+07,
2461267.500000000, A.D. 2026-Aug-15 00:00:00.0000, -2.100055320921232E+08, 2.707819744530331E+08, 1.778536002270772E+07,
2461274.500000000, A.D. 2026-Aug-22 00:00:00.0000, -2.200744124904306E+08, 2.635002757454671E+08, 1.713511343513714E+07,
2461281.500000000, A.D. 2026-Aug-29 00:00:00.0000, -2.298804048785194E+08, 2.559038094963851E+08, 1.646438360052836E+07,
2461288.500000000, A.D. 2026-Sep-05 00:00:00.0000, -2.394133305940302E+08, 2.480033703598320E+08, 1.577408296749854E+07,
$$EOE